[
    {
        "CCSDS_OMM_VERS": "3.0",
        "COMMENT": "GENERATED VIA SPACE-TRACK.ORG API",
        "CREATION_DATE": "2025-04-14T03:05:54",
        "ORIGINATOR": "18 SPCS",
        "OBJECT_NAME": "BEIDOU 3 G4",
        "OBJECT_ID": "2023-066A",
        "CENTER_NAME": "EARTH",
        "REF_FRAME": "TEME",
        "TIME_SYSTEM": "UTC",
        "MEAN_ELEMENT_THEORY": "SGP4",
        "EPOCH": "2025-04-13T20:10:38.745408",
        "MEAN_MOTION": "1.00273903",
        "ECCENTRICITY": "0.00027450",
        "INCLINATION": "1.3804",
        "RA_OF_ASC_NODE": "291.0577",
        "ARG_OF_PERICENTER": "200.7899",
        "MEAN_ANOMALY": "173.0130",
        "EPHEMERIS_TYPE": "0",
        "CLASSIFICATION_TYPE": "U",
        "NORAD_CAT_ID": "56564",
        "ELEMENT_SET_NO": "999",
        "REV_AT_EPOCH": "709",
        "BSTAR": "0.00000000000000",
        "MEAN_MOTION_DOT": "-0.00000106",
        "MEAN_MOTION_DDOT": "0.0000000000000",
        "SEMIMAJOR_AXIS": "42164.138",
        "PERIOD": "1436.067",
        "APOAPSIS": "35797.577",
        "PERIAPSIS": "35774.429",
        "OBJECT_TYPE": "PAYLOAD",
        "RCS_SIZE": "LARGE",
        "COUNTRY_CODE": "PRC",
        "LAUNCH_DATE": "2023-05-17",
        "SITE": "XSC",
        "DECAY_DATE": null,
        "FILE": "4701263",
        "GP_ID": "285546060",
        "TLE_LINE0": "0 BEIDOU 3 G4",
        "TLE_LINE1": "1 56564U 23066A   25103.84072622 -.00000106  00000-0  00000-0 0  9993",
        "TLE_LINE2": "2 56564   1.3804 291.0577 0002745 200.7899 173.0130  1.00273903  7094"
    }
]